LYNK TOWER 4            
1 55034U 23001AB  26068.67743801  .00009160  00000+0  30014-3 0  9997
2 55034  97.3324 128.5940 0010321 112.3386 247.8950 15.31819885176588
STARLINK-31939          
1 60026U 24111L   26068.28194314 -.00000343  00000+0  56139-6 0  9997
2 60026  53.1604  77.3344 0001283  95.2030 264.9118 15.30189391 98970
